[{"OBJECT_NAME":"STARLINK-1019","OBJECT_ID":"2019-074M","EPOCH":"2026-03-10T00:00:02.999808","MEAN_MOTION":15.81422957,"ECCENTRICITY":0.00012296,"INCLINATION":53.0417,"RA_OF_ASC_NODE":135.1493,"ARG_OF_PERICENTER":210.7018,"MEAN_ANOMALY":191.1896,"EPHEMERIS_TYPE":0,"CLASSIFICATION_TYPE":"U","NORAD_CAT_ID":44724,"ELEMENT_SET_NO":999,"REV_AT_EPOCH":567,"BSTAR":0.0009041504,"MEAN_MOTION_DOT":0.00186361,"MEAN_MOTION_DDOT":0},{"OBJECT_NAME":"STARLINK-4349","OBJECT_ID":"2022-077B","EPOCH":"2026-03-10T00:00:02.999808","MEAN_MOTION":15.82599286,"ECCENTRICITY":0.00011323,"INCLINATION":97.6018,"RA_OF_ASC_NODE":259.1547,"ARG_OF_PERICENTER":279.8477,"MEAN_ANOMALY":6.0284,"EPHEMERIS_TYPE":0,"CLASSIFICATION_TYPE":"U","NORAD_CAT_ID":53044,"ELEMENT_SET_NO":999,"REV_AT_EPOCH":598,"BSTAR":0.0011162879,"MEAN_MOTION_DOT":0.00238434,"MEAN_MOTION_DDOT":0}]
